NORAD_CAT_ID,OBJECT_NAME,OBJECT_TYPE,EPOCH,MEAN_MOTION,ECCENTRICITY,INCLINATION,RA_OF_ASC_NODE,ARG_OF_PERICENTER,MEAN_ANOMALY,BSTAR,MEAN_MOTION_DOT,MEAN_MOTION_DDOT,TLE_LINE0,TLE_LINE1,TLE_LINE2,SEMIMAJOR_AXIS,PERIOD,APOGEE,PERIGEE,DECAYED
53634.0,STARLINK-4592,PAYLOAD,2022-10-13 06:00:00,15.7317421,0.0001651,53.2163,59.7128,32.3063,80.0159,0.00065173,0.0009175,0.0,0 STARLINK-4592,1 53634U 22104AY  22286.25001157  .00091750  00000-0  65173-3 0  9998,2 53634  53.2163  59.7128 0001651  32.3063  80.0159 15.73174210  7297,6727.969,91.535,350.944,348.723,0.0
53634.0,STARLINK-4592,PAYLOAD,2022-10-13 14:00:01,15.73261331,0.0001676999999999,53.2172,58.065,31.4295,169.8248,-0.00056912,-0.0007995,0.0,0 STARLINK-4592,1 53634U 22104AY  22286.58334491 -.00079950  00000-0 -56912-3 0  9995,2 53634  53.2172  58.0650 0001677  31.4295 169.8248 15.73261331  1306,6727.72,91.53,350.714,348.457,0.0
53634.0,STARLINK-4592,PAYLOAD,2022-10-13 20:00:01,15.73199807,0.0001676999999999,53.2172,56.8293,26.0489,152.0064,6.4658e-05,8.463e-05,0.0,0 STARLINK-4592,1 53634U 22104AY  22286.83335648  .00008463  00000-0  64658-4 0  9994,2 53634  53.2172  56.8293 0001677  26.0489 152.0064 15.73199807  7382,6727.896,91.533,350.889,348.63199999999995,0.0
53634.0,STARLINK-4592,PAYLOAD,2022-10-13 22:00:00,15.73205214,0.0001672,53.2171,56.4164,25.629,264.5925,-6.8282e-06,-1.579e-05,0.0,0 STARLINK-4592,1 53634U 22104AY  22286.91667824 -.00001579  00000-0 -68282-5 0  9998,2 53634  53.2171  56.4164 0001672  25.6290 264.5925 15.73205214  1305,6727.88,91.533,350.87,348.62,0.0
53634.0,STARLINK-4592,PAYLOAD,2022-10-14 14:00:01,15.73204121,0.0001756,53.2173,53.1171,27.1461,80.9446,2.2942e-06,-2.99e-06,0.0,0 STARLINK-4592,1 53634U 22104AY  22287.58334491 -.00000299  00000-0  22942-5 0  9993,2 53634  53.2173  53.1171 0001756  27.1461  80.9446 15.73204121  1303,6727.8830000000025,91.533,350.93,348.56699999999995,0.0
53634.0,STARLINK-4592,PAYLOAD,2022-10-14 18:00:00,15.73204527,0.0001799,53.2176,52.293,25.6586,306.8988,-4.2497e-06,-1.217e-05,0.0,0 STARLINK-4592,1 53634U 22104AY  22287.75001157 -.00001217  00000-0 -42497-5 0  9991,2 53634  53.2176  52.2930 0001799  25.6586 306.8988 15.73204527  1308,6727.882,91.533,350.958,348.537,0.0
53634.0,STARLINK-4592,PAYLOAD,2022-10-15 14:00:01,15.73284229,0.0002295999999999,53.2149,48.168,23.0778,351.9433,-0.00060716,-0.00085292,0.0,0 STARLINK-4592,1 53634U 22104AY  22288.58334491 -.00085292  00000-0 -60716-3 0  9990,2 53634  53.2149  48.1680 0002296  23.0778 351.9433 15.73284229  7659,6727.655,91.528,351.065,347.975,0.0
53634.0,STARLINK-4592,PAYLOAD,2022-10-15 22:00:01,15.73256186,0.0002364,53.2144,46.5181,19.4634,84.5985,-0.0012286,-0.00170048,0.0,0 STARLINK-4592,1 53634U 22104AY  22288.91668981 -.00170048  00000-0 -12286-2 0  9993,2 53634  53.2144  46.5181 0002364  19.4634  84.5985 15.73256186  1306,6727.735,91.53,351.19,348.01,0.0
53634.0,STARLINK-4592,PAYLOAD,2022-10-16 14:00:01,15.73351426,0.0002296999999999,53.216,43.2194,24.2574,257.5475,-0.0031611,-0.00425421,0.0,0 STARLINK-4592,1 53634U 22104AY  22289.58334491 -.00425421  00000-0 -31611-2 0  9994,2 53634  53.2160  43.2194 0002297  24.2574 257.5475 15.73351426  1303,6727.4630000000025,91.524,350.874,347.783,0.0
53634.0,STARLINK-4592,PAYLOAD,2022-10-16 22:00:00,15.73205046,0.0002524,53.2147,41.5696,16.8154,353.9404,-0.00019099,-0.00027349,0.0,0 STARLINK-4592,1 53634U 22104AY  22289.91667824 -.00027349  00000-0 -19099-3 0  9994,2 53634  53.2147  41.5696 0002524  16.8154 353.9404 15.73205046  7866,6727.880999999999,91.533,351.444,348.048,0.0
53634.0,STARLINK-4592,PAYLOAD,2022-10-17 14:00:01,15.73211549,0.0002631999999999,53.2148,38.2712,14.0545,174.555,-0.00030862,-0.0004373999999999,0.0,0 STARLINK-4592,1 53634U 22104AY  22290.58334491 -.00043740  00000-0 -30862-3 0  9994,2 53634  53.2148  38.2712 0002632  14.0545 174.5550 15.73211549  7979,6727.861999999999,91.533,351.49800000000016,347.956,0.0
53634.0,STARLINK-4592,PAYLOAD,2022-10-17 22:00:00,15.73207089,0.0002625,53.2139,36.6207,13.982,263.5221,-0.00056795,-0.0007962,0.0,0 STARLINK-4592,1 53634U 22104AY  22290.91667824 -.00079620  00000-0 -56795-3 0  9999,2 53634  53.2139  36.6207 0002625  13.9820 263.5221 15.73207089  1305,6727.875,91.533,351.506,347.974,0.0
53634.0,STARLINK-4592,PAYLOAD,2022-10-18 14:00:01,15.73141859,0.0002873,53.2143,33.3223,22.3342,72.9694,0.00035847,0.00049869,0.0,0 STARLINK-4592,1 53634U 22104AY  22291.58334491  .00049869  00000-0  35847-3 0  9999,2 53634  53.2143  33.3223 0002873  22.3342  72.9694 15.73141859  8136,6728.061,91.537,351.8590000000001,347.99300000000005,0.0
53634.0,STARLINK-4592,PAYLOAD,2022-10-18 22:00:00,15.7320565,0.0002376999999999,53.2174,31.6724,19.0981,165.1382,-2.2602e-05,-3.794e-05,0.0,0 STARLINK-4592,1 53634U 22104AY  22291.91667824 -.00003794  00000-0 -22602-4 0  9990,2 53634  53.2174  31.6724 0002377  19.0981 165.1382 15.73205650  8182,6727.879,91.533,351.343,348.145,0.0
53634.0,STARLINK-4592,PAYLOAD,2022-10-19 06:00:00,15.73200759,0.0002756,53.2145,30.0211,22.3768,250.7422,0.00018172,0.00024961,0.0,0 STARLINK-4592,1 53634U 22104AY  22292.25001157  .00024961  00000-0  18172-3 0  9992,2 53634  53.2145  30.0211 0002756  22.3768 250.7422 15.73200759  8232,6727.893,91.533,351.612,347.904,0.0
53634.0,STARLINK-4592,PAYLOAD,2022-10-19 14:00:01,15.73223019,0.0003016,53.2142,28.3736,18.936,343.1198,0.00016462,0.0002256999999999,0.0,0 STARLINK-4592,1 53634U 22104AY  22292.58334491  .00022570  00000-0  16462-3 0  9992,2 53634  53.2142  28.3736 0003016  18.9360 343.1198 15.73223019  1302,6727.83,91.532,351.724,347.665,0.0
53634.0,STARLINK-4592,PAYLOAD,2022-10-19 22:00:00,15.73254469,0.0002944,53.2155,26.724,19.1675,71.8493,-0.00057222,-0.00080375,0.0,0 STARLINK-4592,1 53634U 22104AY  22292.91667824 -.00080375  00000-0 -57222-3 0  9996,2 53634  53.2155  26.7240 0002944  19.1675  71.8493 15.73254469  1305,6727.74,91.53,351.586,347.624,0.0
53634.0,STARLINK-4592,PAYLOAD,2022-10-20 06:00:00,15.73193779,0.0002712,53.2142,25.0722,13.5692,166.4271,0.00042339,0.0005921,0.0,0 STARLINK-4592,1 53634U 22104AY  22293.25001157  .00059210  00000-0  42339-3 0  9990,2 53634  53.2142  25.0722 0002712  13.5692 166.4271 15.73193779  8395,6727.913000000001,91.534,351.603,347.95300000000015,0.0
53634.0,STARLINK-4592,PAYLOAD,2022-10-20 14:00:01,15.73236619,0.0003018,53.2143,23.4248,11.3618,257.5542,-0.00041575,-0.00058672,0.0,0 STARLINK-4592,1 53634U 22104AY  22293.58334491 -.00058672  00000-0 -41575-3 0  9990,2 53634  53.2143  23.4248 0003018  11.3618 257.5542 15.73236619  1303,6727.791,91.531,351.686,347.625,0.0
53634.0,STARLINK-4592,PAYLOAD,2022-10-20 22:00:00,15.73197617,0.000301,53.215,21.7741,11.0374,346.8286,-0.00038941,-0.00054927,0.0,0 STARLINK-4592,1 53634U 22104AY  22293.91667824 -.00054927  00000-0 -38941-3 0  9998,2 53634  53.2150  21.7741 0003010  11.0374 346.8286 15.73197617  1309,6727.901999999999,91.533,351.792,347.742,0.0
53634.0,STARLINK-4592,PAYLOAD,2022-10-21 14:00:01,15.73232055,0.000327,53.2151,18.477,14.3792,161.3248,0.0001386999999999,0.00018918,0.0,0 STARLINK-4592,1 53634U 22104AY  22294.58334491  .00018918  00000-0  13870-3 0  9995,2 53634  53.2151  18.4770 0003270  14.3792 161.3248 15.73232055  8607,6727.804,91.531,351.869,347.469,0.0
53634.0,STARLINK-4592,PAYLOAD,2022-10-21 22:00:00,15.73254177,0.000309,53.2139,16.8254,10.3275,254.337,-0.00086553,-0.00120685,0.0,0 STARLINK-4592,1 53634U 22104AY  22294.91667824 -.00120685  00000-0 -86553-3 0  9996,2 53634  53.2139  16.8254 0003090  10.3275 254.3370 15.73254177  1302,6727.741,91.53,351.685,347.527,0.0
53634.0,STARLINK-4592,PAYLOAD,2022-10-22 06:00:00,15.73160064,0.0002975,53.2143,15.175,8.7834,344.8251,0.00044922,0.00062799,0.0,0 STARLINK-4592,1 53634U 22104AY  22295.25001157  .00062799  00000-0  44922-3 0  9998,2 53634  53.2143  15.1750 0002975   8.7834 344.8251 15.73160064  8708,6728.009,91.536,351.876,347.872,0.0
53634.0,STARLINK-4592,PAYLOAD,2022-10-22 14:00:01,15.73204558,0.0003306,53.2144,13.5276,7.5355,74.9896,0.00026838,0.00037226,0.0,0 STARLINK-4592,1 53634U 22104AY  22295.58334491  .00037226  00000-0  26838-3 0  9997,2 53634  53.2144  13.5276 0003306   7.5355  74.9896 15.73204558  1300,6727.882,91.533,351.971,347.523,0.0
53634.0,STARLINK-4592,PAYLOAD,2022-10-22 22:00:00,15.73237387,0.0003266999999999,53.2145,11.8766,6.2399,165.2565,2.4362e-06,-2.81e-06,0.0,0 STARLINK-4592,1 53634U 22104AY  22295.91667824 -.00000281  00000-0  24362-5 0  9997,2 53634  53.2145  11.8766 0003267   6.2399 165.2565 15.73237387  1309,6727.7890000000025,91.531,351.852,347.456,0.0
53634.0,STARLINK-4592,PAYLOAD,2022-10-23 08:00:01,15.73253232,0.00033,53.2145,9.8145,10.3465,2.4545,4.4329e-05,5.617e-05,0.0,0 STARLINK-4592,1 53634U 22104AY  22296.33335648  .00005617  00000-0  44329-4 0  9991,2 53634  53.2145   9.8145 0003300  10.3465   2.4545 15.73253232  8871,6727.743,91.53,351.829,347.38800000000015,0.0
53634.0,STARLINK-4592,PAYLOAD,2022-10-23 14:00:01,15.73253708,0.0003523999999999,53.2142,8.5788,10.271,339.2001,6.3855e-05,8.37e-05,0.0,0 STARLINK-4592,1 53634U 22104AY  22296.58334491  .00008370  00000-0  63855-4 0  9997,2 53634  53.2142   8.5788 0003524  10.2710 339.2001 15.73253708  1304,6727.7419999999975,91.53,351.978,347.236,0.0
53634.0,STARLINK-4592,PAYLOAD,2022-10-23 22:00:00,15.7326345,0.0003331,53.2138,6.9276,6.0893,72.3815,-0.00098415,-0.00136942,0.0,0 STARLINK-4592,1 53634U 22104AY  22296.91667824 -.00136942  00000-0 -98415-3 0  9991,2 53634  53.2138   6.9276 0003331   6.0893  72.3815 15.73263450  8977,6727.714,91.529,351.82,347.338,0.0
53634.0,STARLINK-4592,PAYLOAD,2022-10-24 14:00:01,15.73045207,0.0003636,53.2141,3.6304,6.7865,249.497,0.00070586,0.00098981,0.0,0 STARLINK-4592,1 53634U 22104AY  22297.58334491  .00098981  00000-0  70586-3 0  9993,2 53634  53.2141   3.6304 0003636   6.7865 249.4970 15.73045207  1308,6728.337,91.542,352.648,347.755,0.0
